ASTROCAST-0403          
1 55111U 23001DG  26068.82333059  .00013959  00000+0  51317-3 0  9990
2 55111  97.5604 161.3228 0004771 338.0704  22.0330 15.28004949129377
STARLINK-32578          
1 61979U 24210W   26067.32557356  .00042418  00000+0  15409-2 0  9997
2 61979  42.9997 187.3287 0000726 232.2096 127.8690 15.27606556 74714
